[{"OBJECT_NAME":"ICEYE-X46","OBJECT_ID":"2025-052BA","EPOCH":"2026-03-09T23:37:07.940352","MEAN_MOTION":14.95243593,"ECCENTRICITY":0.00019571,"INCLINATION":97.7002,"RA_OF_ASC_NODE":322.7137,"ARG_OF_PERICENTER":83.9328,"MEAN_ANOMALY":276.2115,"EPHEMERIS_TYPE":0,"CLASSIFICATION_TYPE":"U","NORAD_CAT_ID":63258,"ELEMENT_SET_NO":999,"REV_AT_EPOCH":5382,"BSTAR":0.0003680603,"MEAN_MOTION_DOT":3.993e-5,"MEAN_MOTION_DDOT":0},{"OBJECT_NAME":"SKYKRAFT-4D","OBJECT_ID":"2025-154K","EPOCH":"2026-03-09T18:12:41.751648","MEAN_MOTION":14.94999025,"ECCENTRICITY":0.00041317,"INCLINATION":97.6775,"RA_OF_ASC_NODE":134.9839,"ARG_OF_PERICENTER":213.6612,"MEAN_ANOMALY":146.4347,"EPHEMERIS_TYPE":0,"CLASSIFICATION_TYPE":"U","NORAD_CAT_ID":64898,"ELEMENT_SET_NO":999,"REV_AT_EPOCH":3243,"BSTAR":0.00061950439,"MEAN_MOTION_DOT":6.721e-5,"MEAN_MOTION_DDOT":0}]
